STARLINK-37634          
1 69028U 26101D   26191.40006916  .00014095  00000+0  43817-3 0  9994
2 69028  97.2865  45.9715 0001375  94.0062 266.1338 15.33439362 10135
STARLINK-37635          
1 69029U 26101E   26191.04933185  .00017124  00000+0  53099-3 0  9991
2 69029  97.2870  45.5307 0001070  94.1853 265.9513 15.33478524 10074
STARLINK-37615          
1 69030U 26101F   26191.03300362  .00018484  00000+0  57313-3 0  9990
2 69030  97.2856  45.5494 0000521  59.3859 300.7435 15.33465038 10073
STARLINK-37240          
1 69031U 26101G   26190.49466727  .00009605  00000+0  29935-3 0  9992
2 69031  97.2852  45.0575 0002068  85.2202 274.9277 15.33457217  9998
STARLINK-37596          
1 69032U 26101H   26191.06565095  .00012017  00000+0  37375-3 0  9993
2 69032  97.2861  45.6559 0001518  95.9188 264.2227 15.33462690 10087
STARLINK-37591          
1 69033U 26101J   26190.51640221  .00016113  00000+0  49973-3 0  9996
2 69033  97.2849  45.0298 0002191  85.0257 275.1236 15.33483397  9999
STARLINK-37611          
1 69034U 26101K   26190.52456198  .00011776  00000+0  36626-3 0  9997
2 69034  97.2856  45.0190 0002059  96.5352 263.6125 15.33465350  9993
STARLINK-37512          
1 69035U 26101L   26191.46259678  .00012899  00000+0  40127-3 0  9994
2 69035  97.2868  46.0359 0001354  96.8701 263.2696 15.33438322 10140
STARLINK-37609          
1 69036U 26101M   26191.02213320 -.00000706  00000+0 -19530-4 0  9992
2 69036  97.2861  45.5642 0001863  94.6139 265.5317 15.33439521 10078
STARLINK-37608          
1 69037U 26101N   26191.01398871  .00012828  00000+0  39875-3 0  9996
2 69037  97.2846  45.5756 0001548  71.9549 288.1862 15.33464957 10078
STARLINK-37466          
1 69038U 26101P   26191.06019508  .00004015  00000+0  12662-3 0  9993
2 69038  97.2863  45.6644 0000978 122.9527 237.1810 15.33448446 10087
STARLINK-37612          
1 69039U 26101Q   26190.53000982  .00024229  00000+0  74973-3 0  9993
2 69039  97.2846  45.0116 0002502  99.3300 260.8226 15.33471728  9999
STARLINK-37616          
1 69040U 26101R   26191.38104157  .00016239  00000+0  50459-3 0  9993
2 69040  97.2822  45.8472 0003067  75.9508 284.2076 15.33419350 10128
STARLINK-37614          
1 69041U 26101S   26190.52185968  .00011995  00000+0  37309-3 0  9991
2 69041  97.2858  45.0229 0002154  96.0910 264.0578 15.33458793  9997
STARLINK-37644          
1 69042U 26101T   26191.03031484  .00013296  00000+0  41368-3 0  9998
2 69042  97.2861  45.5549 0001818 105.7741 254.3703 15.33425805 10079
STARLINK-37571          
1 69043U 26101U   26190.51368729  .00013647  00000+0  42418-3 0  9993
2 69043  97.2895  45.0354 0001961  67.9192 292.2258 15.33452725  9990
STARLINK-37664          
1 69044U 26101V   26190.50552959  .00019625  00000+0  60849-3 0  9993
2 69044  97.2859  45.0433 0001693  90.2782 269.8655 15.33452329  9996
STARLINK-37667          
1 69045U 26101W   26191.01941971  .00019762  00000+0  61302-3 0  9994
2 69045  97.2886  45.5704 0001791 281.3075  78.7966 15.33435605 10071
STARLINK-37666          
1 69046U 26101X   26190.54629959  .00019544  00000+0  60522-3 0  9992
2 69046  97.2850  45.1408 0001519 116.3465 243.7934 15.33492906 10007
STARLINK-37576          
1 69047U 26101Y   26191.06292427  .00020072  00000+0  62200-3 0  9990
2 69047  97.2867  45.6660 0001568  93.2738 266.8684 15.33465154 10082
STARLINK-37663          
1 69048U 26101Z   26191.14176840  .00018622  00000+0  57759-3 0  9991
2 69048  97.2879  45.7088 0001828 104.8038 255.3408 15.33451219 10097
STARLINK-37726          
1 69124U 26110A   26190.49358910  .00005835  00000+0  18298-3 0  9990
2 69124  97.2859  26.6724 0001581  98.9033 261.2389 15.33437953  9034
STARLINK-37722          
1 69125U 26110B   26191.00477012  .00018930  00000+0  58705-3 0  9991
2 69125  97.2870  27.0539 0001539  95.7873 264.3545 15.33453330  9100
STARLINK-37715          
1 69126U 26110C   26191.01291563  .00013939  00000+0  43291-3 0  9996
2 69126  97.2888  27.0442 0000661   6.4844 353.6407 15.33473157  9103
STARLINK-37706          
1 69127U 26110D   26191.79325605  .00006880  00000+0  21524-3 0  9999
2 69127  97.2844  27.8197 0001757 101.6728 258.4711 15.33444067  9228
STARLINK-37723          
1 69128U 26110E   26191.79053889  .00009562  00000+0  29806-3 0  9993
2 69128  97.2876  27.8257 0001518  83.0872 277.0543 15.33452713  9226
STARLINK-37720          
1 69129U 26110F   26191.26305148  .00006436  00000+0  20147-3 0  9990
2 69129  97.2834  27.3110 0000763  82.3314 277.8015 15.33452045  9149
STARLINK-37533          
1 69130U 26110G   26191.71711948  .00026449  00000+0  81755-3 0  9999
2 69130  97.2854  27.7742 0001375  34.4350 325.6981 15.33490487  9210
STARLINK-37530          
1 69131U 26110H   26190.93133193  .00021814  00000+0  67551-3 0  9992
2 69131  97.2819  27.0004 0002443  92.1531 267.9992 15.33470013  9094
STARLINK-37660          
1 69132U 26110J   26191.51592441  .00018301  00000+0  56735-3 0  9992
2 69132  97.2848  27.5826 0001997  96.4057 263.7413 15.33470785  9185
