OBJECT_NAME,OBJECT_ID,EPOCH,MEAN_MOTION,ECCENTRICITY,INCLINATION,RA_OF_ASC_NODE,ARG_OF_PERICENTER,MEAN_ANOMALY,EPHEMERIS_TYPE,CLASSIFICATION_TYPE,NORAD_CAT_ID,ELEMENT_SET_NO,REV_AT_EPOCH,BSTAR,MEAN_MOTION_DOT,MEAN_MOTION_DDOT
STARLINK-37634,2026-101D,2026-07-10T09:36:05.975424,15.33439362,.00013753,97.2865,45.9715,94.0062,266.1338,0,U,69028,999,1013,.43817126E-3,.14095E-3,0
STARLINK-37635,2026-101E,2026-07-10T01:11:02.271840,15.33478524,.00010706,97.2870,45.5307,94.1853,265.9513,0,U,69029,999,1007,.53098765E-3,.17124E-3,0
STARLINK-37615,2026-101F,2026-07-10T00:47:31.512768,15.33465038,.00005211,97.2856,45.5494,59.3859,300.7435,0,U,69030,999,1007,.57312619E-3,.18484E-3,0
STARLINK-37240,2026-101G,2026-07-09T11:52:19.252128,15.33457217,.00020688,97.2852,45.0575,85.2202,274.9277,0,U,69031,999,999,.29934869E-3,.9605E-4,0
STARLINK-37596,2026-101H,2026-07-10T01:34:32.242080,15.33462690,.0001518,97.2861,45.6559,95.9188,264.2227,0,U,69032,999,1008,.37375372E-3,.12017E-3,0
STARLINK-37591,2026-101J,2026-07-09T12:23:37.150944,15.33483397,.00021911,97.2849,45.0298,85.0257,275.1236,0,U,69033,999,999,.49973274E-3,.16113E-3,0
STARLINK-37611,2026-101K,2026-07-09T12:35:22.155072,15.33465350,.00020591,97.2856,45.0190,96.5352,263.6125,0,U,69034,999,999,.36625787E-3,.11776E-3,0
STARLINK-37512,2026-101L,2026-07-10T11:06:08.361792,15.33438322,.00013545,97.2868,46.0359,96.8701,263.2696,0,U,69035,999,1014,.40127468E-3,.12899E-3,0
STARLINK-37609,2026-101M,2026-07-10T00:31:52.308480,15.33439521,.00018638,97.2861,45.5642,94.6139,265.5317,0,U,69036,999,1007,-.19530096E-4,-.706E-5,0
STARLINK-37608,2026-101N,2026-07-10T00:20:08.624544,15.33464957,.00015482,97.2846,45.5756,71.9549,288.1862,0,U,69037,999,1007,.3987452E-3,.12828E-3,0
STARLINK-37466,2026-101P,2026-07-10T01:26:40.854912,15.33448446,.00009788,97.2863,45.6644,122.9527,237.1810,0,U,69038,999,1008,.12661661E-3,.4015E-4,0
STARLINK-37612,2026-101Q,2026-07-09T12:43:12.848448,15.33471728,.00025024,97.2846,45.0116,99.3300,260.8226,0,U,69039,999,999,.74973111E-3,.24229E-3,0
STARLINK-37616,2026-101R,2026-07-10T09:08:41.991648,15.33419350,.00030672,97.2822,45.8472,75.9508,284.2076,0,U,69040,999,1012,.50458596E-3,.16239E-3,0
STARLINK-37614,2026-101S,2026-07-09T12:31:28.676352,15.33458793,.00021544,97.2858,45.0229,96.0910,264.0578,0,U,69041,999,999,.37309446E-3,.11995E-3,0
STARLINK-37644,2026-101T,2026-07-10T00:43:39.202176,15.33425805,.00018186,97.2861,45.5549,105.7741,254.3703,0,U,69042,999,1007,.41368373E-3,.13296E-3,0
STARLINK-37571,2026-101U,2026-07-09T12:19:42.581856,15.33452725,.00019613,97.2895,45.0354,67.9192,292.2258,0,U,69043,999,999,.4241791E-3,.13647E-3,0
STARLINK-37664,2026-101V,2026-07-09T12:07:57.756576,15.33452329,.00016932,97.2859,45.0433,90.2782,269.8655,0,U,69044,999,999,.60848579E-3,.19625E-3,0
STARLINK-37667,2026-101W,2026-07-10T00:27:57.862944,15.33435605,.00017916,97.2886,45.5704,281.3075,78.7966,0,U,69045,999,1007,.61302214E-3,.19762E-3,0
STARLINK-37666,2026-101X,2026-07-09T13:06:40.284576,15.33492906,.00015196,97.2850,45.1408,116.3465,243.7934,0,U,69046,999,1000,.60521939E-3,.19544E-3,0
STARLINK-37576,2026-101Y,2026-07-10T01:30:36.656928,15.33465154,.0001568,97.2867,45.6660,93.2738,266.8684,0,U,69047,999,1008,.62200272E-3,.20072E-3,0
STARLINK-37663,2026-101Z,2026-07-10T03:24:08.789760,15.33451219,.00018283,97.2879,45.7088,104.8038,255.3408,0,U,69048,999,1009,.57759069E-3,.18622E-3,0
STARLINK-37726,2026-110A,2026-07-09T11:50:46.098240,15.33437953,.00015812,97.2859,26.6724,98.9033,261.2389,0,U,69124,999,903,.18297688E-3,.5835E-4,0
STARLINK-37722,2026-110B,2026-07-10T00:06:52.138368,15.33453330,.00015394,97.2870,27.0539,95.7873,264.3545,0,U,69125,999,910,.58705086E-3,.1893E-3,0
STARLINK-37715,2026-110C,2026-07-10T00:18:35.910432,15.33473157,.00006619,97.2888,27.0442,6.4844,353.6407,0,U,69126,999,910,.4329137E-3,.13939E-3,0
STARLINK-37706,2026-110D,2026-07-10T19:02:17.322720,15.33444067,.0001757,97.2844,27.8197,101.6728,258.4711,0,U,69127,999,922,.21524E-3,.688E-4,0
STARLINK-37723,2026-110E,2026-07-10T18:58:22.560096,15.33452713,.0001518,97.2876,27.8257,83.0872,277.0543,0,U,69128,999,922,.29806E-3,.9562E-4,0
STARLINK-37720,2026-110F,2026-07-10T06:18:47.647872,15.33452045,.00007631,97.2834,27.3110,82.3314,277.8015,0,U,69129,999,914,.20146578E-3,.6436E-4,0
STARLINK-37533,2026-110G,2026-07-10T17:12:39.123072,15.33490487,.0001375,97.2854,27.7742,34.4350,325.6981,0,U,69130,999,921,.81755E-3,.26449E-3,0
STARLINK-37530,2026-110H,2026-07-09T22:21:07.078752,15.33470013,.00024438,97.2819,27.0004,92.1531,267.9992,0,U,69131,999,909,.67550929E-3,.21814E-3,0
STARLINK-37660,2026-110J,2026-07-10T12:22:55.869024,15.33470785,.0001997,97.2848,27.5826,96.4057,263.7413,0,U,69132,999,918,.56735E-3,.18301E-3,0
